2022-023A               
1 51946U 22023A   26066.38437076  .00004303  00000+0  19500-3 0  9999
2 51946  63.4765 256.0240 0098533 341.4326  18.3199 15.18202647222269
STARLINK-33549          
1 62289U 24237Y   26068.45321631  .00032138  00000+0  11712-2 0  9992
2 62289  43.0014 217.8770 0002339 162.9864 197.1066 15.27608759 71150
